ORBCOMM FM37            
1 33064U 08031E   25213.19122852  .00001547  00000+0  23071-3 0  9993
2 33064  48.4400 129.6641 0005310 212.4654 263.1144 14.79888705921033
ORBCOMM FM40            
1 33065U 08031F   25212.96267906  .00002073  00000+0  28423-3 0  9999
2 33065  48.4408 114.0324 0006516 223.6882 229.4947 14.82180179920808
VESSELSAT 1             
1 37840U 11058C   25212.92378495  .00000360  00000+0  51687-4 0  9995
2 37840  19.9604 183.1848 0013507 319.2706  40.6689 14.11360271712638
ORBCOMM FM109           
1 40086U 14040A   25212.92731482  .00000618  00000+0  16912-3 0  9991
2 40086  47.0024 164.9850 0001661 220.3318 139.7445 14.58225553587590
ORBCOMM FM107           
1 40087U 14040B   25212.81669404  .00000656  00000+0  17682-3 0  9991
2 40087  47.0040 166.4549 0000292 159.6237 200.4661 14.58299887587658
ORBCOMM FM106           
1 40088U 14040C   25212.83411926  .00001003  00000+0  19860-3 0  9995
2 40088  47.0621 344.8982 0017618 272.9842  86.9033 14.69523570590259
ORBCOMM FM111           
1 40089U 14040D   25212.51458308  .00003049  00000+0  36269-3 0  9990
2 40089  46.9997 190.6050 0029868  42.9908 317.3316 14.86483317596822
ORBCOMM FM104           
1 40090U 14040E   25213.12855743  .00000514  00000+0  15160-3 0  9995
2 40090  47.0033 199.1323 0015762  47.1354 313.0852 14.56693205587277
